{
  "type": "FeatureCollection",
  "features": [
    {
      "type": "Feature",
      "properties": {
        "norad_id": 24946,
        "name": "IRIDIUM 33",
        "group": "iridium-33-debris",
        "lat": 60.048950939474544,
        "lon": -123.80930457525278,
        "alt_km": 764.2422863058309,
        "timestamp": "2025-12-26T09:30:54.023929+00:00",
        "meta_object_name": "IRIDIUM 33",
        "meta_object_id": "1997-051C",
        "meta_epoch": "2025-12-26T03:56:18.994272",
        "meta_mean_motion": 14.35046384,
        "meta_eccentricity": 0.0008611,
        "meta_inclination": 86.3856,
        "meta_ra_of_asc_node": 62.586,
        "meta_arg_of_pericenter": 157.3074,
        "meta_mean_anomaly": 202.8505,
        "meta_ephemeris_type": 0,
        "meta_classification_type": "U",
        "meta_norad_cat_id": 24946,
        "meta_element_set_no": 999,
        "meta_rev_at_epoch": 48027,
        "meta_bstar": 0.00010877,
        "meta_mean_motion_dot": 3.3e-06,
        "meta_mean_motion_ddot": 0,
        "tle_line1": "1 24946U 97051C   25360.16410873  .00000330  00000+0  10877-3 0  9994",
        "tle_line2": "2 24946  86.3856  62.5860 0008611 157.3074 202.8505 14.35046384480274"
      },
      "geometry": {
        "type": "Point",
        "coordinates": [
          -123.80930457525278,
          60.048950939474544
        ]
      }
    },
    {
      "type": "Feature",
      "properties": {
        "norad_id": 33773,
        "name": "IRIDIUM 33 DEB",
        "group": "iridium-33-debris",
        "lat": 58.978973641255784,
        "lon": -131.20828662505238,
        "alt_km": 732.8255400820262,
        "timestamp": "2025-12-26T09:30:54.023976+00:00",
        "meta_object_name": "IRIDIUM 33 DEB",
        "meta_object_id": "1997-051L",
        "meta_epoch": "2025-12-26T03:57:58.913280",
        "meta_mean_motion": 14.43284045,
        "meta_eccentricity": 0.001332,
        "meta_inclination": 86.3996,
        "meta_ra_of_asc_node": 54.8996,
        "meta_arg_of_pericenter": 107.9438,
        "meta_mean_anomaly": 252.3216,
        "meta_ephemeris_type": 0,
        "meta_classification_type": "U",
        "meta_norad_cat_id": 33773,
        "meta_element_set_no": 999,
        "meta_rev_at_epoch": 88541,
        "meta_bstar": 0.00027812,
        "meta_mean_motion_dot": 9.57e-06,
        "meta_mean_motion_ddot": 0,
        "tle_line1": "1 33773U 97051L   25360.16526520  .00000957  00000+0  27812-3 0  9991",
        "tle_line2": "2 33773  86.3996  54.8996 0013320 107.9438 252.3216 14.43284045885410"
      },
      "geometry": {
        "type": "Point",
        "coordinates": [
          -131.20828662505238,
          58.978973641255784
        ]
      }
    },
    {
      "type": "Feature",
      "properties": {
        "norad_id": 33775,
        "name": "IRIDIUM 33 DEB",
        "group": "iridium-33-debris",
        "lat": 63.24681959607824,
        "lon": -143.5275477671612,
        "alt_km": 736.5299331008373,
        "timestamp": "2025-12-26T09:30:54.023992+00:00",
        "meta_object_name": "IRIDIUM 33 DEB",
        "meta_object_id": "1997-051N",
        "meta_epoch": "2025-12-26T04:15:04.667040",
        "meta_mean_motion": 14.41496129,
        "meta_eccentricity": 0.0015364,
        "meta_inclination": 86.3623,
        "meta_ra_of_asc_node": 43.8159,
        "meta_arg_of_pericenter": 114.8502,
        "meta_mean_anomaly": 304.1975,
        "meta_ephemeris_type": 0,
        "meta_classification_type": "U",
        "meta_norad_cat_id": 33775,
        "meta_element_set_no": 999,
        "meta_rev_at_epoch": 88334,
        "meta_bstar": 0.00030509,
        "meta_mean_motion_dot": 1.011e-05,
        "meta_mean_motion_ddot": 0,
        "tle_line1": "1 33775U 97051N   25360.17713735  .00001011  00000+0  30509-3 0  9999",
        "tle_line2": "2 33775  86.3623  43.8159 0015364 114.8502 304.1975 14.41496129883341"
      },
      "geometry": {
        "type": "Point",
        "coordinates": [
          -143.5275477671612,
          63.24681959607824
        ]
      }
    },
    {
      "type": "Feature",
      "properties": {
        "norad_id": 33776,
        "name": "IRIDIUM 33 DEB",
        "group": "iridium-33-debris",
        "lat": -7.4968192103663975,
        "lon": -104.48508062818705,
        "alt_km": 759.5906899994316,
        "timestamp": "2025-12-26T09:30:54.024006+00:00",
        "meta_object_name": "IRIDIUM 33 DEB",
        "meta_object_id": "1997-051P",
        "meta_epoch": "2025-12-26T03:56:45.049920",
        "meta_mean_motion": 14.38257306,
        "meta_eccentricity": 0.0015834,
        "meta_inclination": 86.4031,
        "meta_ra_of_asc_node": 75.1381,
        "meta_arg_of_pericenter": 147.9814,
        "meta_mean_anomaly": 278.5724,
        "meta_ephemeris_type": 0,
        "meta_classification_type": "U",
        "meta_norad_cat_id": 33776,
        "meta_element_set_no": 999,
        "meta_rev_at_epoch": 88275,
        "meta_bstar": 0.00025007,
        "meta_mean_motion_dot": 7.81e-06,
        "meta_mean_motion_ddot": 0,
        "tle_line1": "1 33776U 97051P   25360.16441030  .00000781  00000+0  25007-3 0  9995",
        "tle_line2": "2 33776  86.4031  75.1381 0015834 147.9814 278.5724 14.38257306882754"
      },
      "geometry": {
        "type": "Point",
        "coordinates": [
          -104.48508062818705,
          -7.4968192103663975
        ]
      }
    },
    {
      "type": "Feature",
      "properties": {
        "norad_id": 33777,
        "name": "IRIDIUM 33 DEB",
        "group": "iridium-33-debris",
        "lat": 69.88398869142368,
        "lon": -160.69929964344178,
        "alt_km": 699.8190109013458,
        "timestamp": "2025-12-26T09:30:54.024019+00:00",
        "meta_object_name": "IRIDIUM 33 DEB",
        "meta_object_id": "1997-051Q",
        "meta_epoch": "2025-12-26T02:24:47.329056",
        "meta_mean_motion": 14.55704127,
        "meta_eccentricity": 0.0006426,
        "meta_inclination": 86.3774,
        "meta_ra_of_asc_node": 29.3899,
        "meta_arg_of_pericenter": 193.5628,
        "meta_mean_anomaly": 166.5408,
        "meta_ephemeris_type": 0,
        "meta_classification_type": "U",
        "meta_norad_cat_id": 33777,
        "meta_element_set_no": 999,
        "meta_rev_at_epoch": 88728,
        "meta_bstar": 0.00079498,
        "meta_mean_motion_dot": 3.495e-05,
        "meta_mean_motion_ddot": 0,
        "tle_line1": "1 33777U 97051Q   25360.10054779  .00003495  00000+0  79498-3 0  9998",
        "tle_line2": "2 33777  86.3774  29.3899 0006426 193.5628 166.5408 14.55704127887285"
      },
      "geometry": {
        "type": "Point",
        "coordinates": [
          -160.69929964344178,
          69.88398869142368
        ]
      }
    },
    {
      "type": "Feature",
      "properties": {
        "norad_id": 33850,
        "name": "IRIDIUM 33 DEB",
        "group": "iridium-33-debris",
        "lat": 49.02050197656833,
        "lon": -159.91824742709173,
        "alt_km": 737.6082009403272,
        "timestamp": "2025-12-26T09:30:54.024031+00:00",
        "meta_object_name": "IRIDIUM 33 DEB",
        "meta_object_id": "1997-051T",
        "meta_epoch": "2025-12-26T02:30:00.751104",
        "meta_mean_motion": 14.42179658,
        "meta_eccentricity": 0.001333,
        "meta_inclination": 86.3408,
        "meta_ra_of_asc_node": 24.4322,
        "meta_arg_of_pericenter": 121.3871,
        "meta_mean_anomaly": 292.8328,
        "meta_ephemeris_type": 0,
        "meta_classification_type": "U",
        "meta_norad_cat_id": 33850,
        "meta_element_set_no": 999,
        "meta_rev_at_epoch": 88345,
        "meta_bstar": 0.00041068,
        "meta_mean_motion_dot": 1.372e-05,
        "meta_mean_motion_ddot": 0,
        "tle_line1": "1 33850U 97051T   25360.10417536  .00001372  00000+0  41068-3 0  9998",
        "tle_line2": "2 33850  86.3408  24.4322 0013330 121.3871 292.8328 14.42179658883459"
      },
      "geometry": {
        "type": "Point",
        "coordinates": [
          -159.91824742709173,
          49.02050197656833
        ]
      }
    },
    {
      "type": "Feature",
      "properties": {
        "norad_id": 33853,
        "name": "IRIDIUM 33 DEB",
        "group": "iridium-33-debris",
        "lat": -20.046238655854893,
        "lon": 165.28498338907033,
        "alt_km": 751.6816710078338,
        "timestamp": "2025-12-26T09:30:54.024044+00:00",
        "meta_object_name": "IRIDIUM 33 DEB",
        "meta_object_id": "1997-051W",
        "meta_epoch": "2025-12-25T22:21:09.286272",
        "meta_mean_motion": 13.99124294,
        "meta_eccentricity": 0.0207818,
        "meta_inclination": 85.9999,
        "meta_ra_of_asc_node": 344.0258,
        "meta_arg_of_pericenter": 195.1397,
        "meta_mean_anomaly": 183.3683,
        "meta_ephemeris_type": 0,
        "meta_classification_type": "U",
        "meta_norad_cat_id": 33853,
        "meta_element_set_no": 999,
        "meta_rev_at_epoch": 85530,
        "meta_bstar": 0.0011389,
        "meta_mean_motion_dot": 2.002e-05,
        "meta_mean_motion_ddot": 0,
        "tle_line1": "1 33853U 97051W   25359.93135748  .00002002  00000+0  11389-2 0  9995",
        "tle_line2": "2 33853  85.9999 344.0258 0207818 195.1397 183.3683 13.99124294855307"
      },
      "geometry": {
        "type": "Point",
        "coordinates": [
          165.28498338907033,
          -20.046238655854893
        ]
      }
    }
  ]
}